GSAT0101 (GALILEO-PFM)  
1 37846U 11060A   24245.97924195 -.00000111  00000+0  00000+0 0  9991
2 37846  57.1277 359.4598 0001192  75.0898 284.9275  1.70476001 79988
GSAT0102 (GALILEO-FM2)  
1 37847U 11060B   24246.48938021 -.00000109  00000+0  00000+0 0  9999
2 37847  57.1284 359.4462 0001451 327.1104  31.5305  1.70475484 80128
GSAT0103 (GALILEO-FM3)  
1 38857U 12055A   24246.01873922  .00000001  00000+0  00000+0 0  9993
2 38857  55.4376 119.4930 0003298 279.8423  80.2173  1.70473836 73872
GSAT0201 (GALILEO 5)    
1 40128U 14050A   24246.70217946 -.00000055  00000+0  00000+0 0  9998
2 40128  49.5792 299.9451 1613195 154.2949 214.7209  1.85519627 66216
GSAT0202 (GALILEO 6)    
1 40129U 14050B   24245.34322505 -.00000049  00000+0  00000+0 0  9999
2 40129  49.5971 299.0776 1612222 155.0384 213.7374  1.85520235 68355
GSAT0203 (GALILEO 7)    
1 40544U 15017A   24246.34490706 -.00000110  00000+0  00000+0 0  9993
2 40544  56.9224 359.3736 0003650 235.3176 124.6534  1.70476489 58075
GSAT0204 (GALILEO 8)    
1 40545U 15017B   24246.59930565 -.00000109  00000+0  00000+0 0  9991
2 40545  56.9289 359.3823 0003715 217.5544 142.4257  1.70475985 21123
GSAT0205 (GALILEO 9)    
1 40889U 15045A   24245.78079800  .00000026  00000+0  00000+0 0  9996
2 40889  55.1880 239.6524 0003194   6.8325 353.1650  1.70473441 55879
GSAT0206 (GALILEO 10)   
1 40890U 15045B   24246.58803258  .00000025  00000+0  00000+0 0  9998
2 40890  55.1861 239.6256 0001982 329.8876  30.0896  1.70473424 55913
GSAT0209 (GALILEO 12)   
1 41174U 15079A   24246.17147452  .00000002  00000+0  00000+0 0  9998
2 41174  55.4566 119.1988 0003185 340.7362  19.3497  1.70474081 53642
GSAT0208 (GALILEO 11)   
1 41175U 15079B   24245.21809850 -.00000004  00000+0  00000+0 0  9993
2 41175  55.4546 119.2228 0002752 340.8816  19.2006  1.70473872 54208
GSAT0211 (GALILEO 14)   
1 41549U 16030A   24246.51373365  .00000025  00000+0  00000+0 0  9999
2 41549  55.3343 239.6470 0003532 314.9065  45.0539  1.70473494 51528
GSAT0207 (GALILEO 15)   
1 41859U 16069A   24245.29187865 -.00000004  00000+0  00000+0 0  9995
2 41859  55.1213 119.2059 0003102 320.2906  39.7794  1.70473987 48479
GSAT0212 (GALILEO 16)   
1 41860U 16069B   24246.31927948  .00000002  00000+0  00000+0 0  9992
2 41860  55.1196 119.1736 0002675  12.4582 347.6469  1.70474107 48527
