[
  {
    "OBJECT_NAME": "GSAT0101 (GALILEO-PFM)",
    "OBJECT_ID": "2011-060A",
    "EPOCH": "2024-09-01T23:30:06.504480",
    "MEAN_MOTION": 1.70476001,
    "ECCENTRICITY": 0.0001192,
    "INCLINATION": 57.1277,
    "RA_OF_ASC_NODE": 359.4598,
    "ARG_OF_PERICENTER": 75.0898,
    "MEAN_ANOMALY": 284.9275,
    "EPHEMERIS_TYPE": 0,
    "CLASSIFICATION_TYPE": "U",
    "NORAD_CAT_ID": 37846,
    "ELEMENT_SET_NO": 999,
    "REV_AT_EPOCH": 7998,
    "BSTAR": 0,
    "MEAN_MOTION_DOT": -0.00000111,
    "MEAN_MOTION_DDOT": 0
  },
  {
    "OBJECT_NAME": "GSAT0102 (GALILEO-FM2)",
    "OBJECT_ID": "2011-060B",
    "EPOCH": "2024-09-02T11:44:42.450144",
    "MEAN_MOTION": 1.70475484,
    "ECCENTRICITY": 0.0001451,
    "INCLINATION": 57.1284,
    "RA_OF_ASC_NODE": 359.4462,
    "ARG_OF_PERICENTER": 327.1104,
    "MEAN_ANOMALY": 31.5305,
    "EPHEMERIS_TYPE": 0,
    "CLASSIFICATION_TYPE": "U",
    "NORAD_CAT_ID": 37847,
    "ELEMENT_SET_NO": 999,
    "REV_AT_EPOCH": 8012,
    "BSTAR": 0,
    "MEAN_MOTION_DOT": -0.00000109,
    "MEAN_MOTION_DDOT": 0
  },
  {
    "OBJECT_NAME": "GSAT0103 (GALILEO-FM3)",
    "OBJECT_ID": "2012-055A",
    "EPOCH": "2024-09-02T00:26:59.068608",
    "MEAN_MOTION": 1.70473836,
    "ECCENTRICITY": 0.0003298,
    "INCLINATION": 55.4376,
    "RA_OF_ASC_NODE": 119.493,
    "ARG_OF_PERICENTER": 279.8423,
    "MEAN_ANOMALY": 80.2173,
    "EPHEMERIS_TYPE": 0,
    "CLASSIFICATION_TYPE": "U",
    "NORAD_CAT_ID": 38857,
    "ELEMENT_SET_NO": 999,
    "REV_AT_EPOCH": 7387,
    "BSTAR": 0,
    "MEAN_MOTION_DOT": 1e-8,
    "MEAN_MOTION_DDOT": 0
  },
  {
    "OBJECT_NAME": "GSAT0201 (GALILEO 5)",
    "OBJECT_ID": "2014-050A",
    "EPOCH": "2024-09-02T16:51:08.305344",
    "MEAN_MOTION": 1.85519627,
    "ECCENTRICITY": 0.1613195,
    "INCLINATION": 49.5792,
    "RA_OF_ASC_NODE": 299.9451,
    "ARG_OF_PERICENTER": 154.2949,
    "MEAN_ANOMALY": 214.7209,
    "EPHEMERIS_TYPE": 0,
    "CLASSIFICATION_TYPE": "U",
    "NORAD_CAT_ID": 40128,
    "ELEMENT_SET_NO": 999,
    "REV_AT_EPOCH": 6621,
    "BSTAR": 0,
    "MEAN_MOTION_DOT": -5.5e-7,
    "MEAN_MOTION_DDOT": 0
  },
  {
    "OBJECT_NAME": "GSAT0202 (GALILEO 6)",
    "OBJECT_ID": "2014-050B",
    "EPOCH": "2024-09-01T08:14:14.644320",
    "MEAN_MOTION": 1.85520235,
    "ECCENTRICITY": 0.1612222,
    "INCLINATION": 49.5971,
    "RA_OF_ASC_NODE": 299.0776,
    "ARG_OF_PERICENTER": 155.0384,
    "MEAN_ANOMALY": 213.7374,
    "EPHEMERIS_TYPE": 0,
    "CLASSIFICATION_TYPE": "U",
    "NORAD_CAT_ID": 40129,
    "ELEMENT_SET_NO": 999,
    "REV_AT_EPOCH": 6835,
    "BSTAR": 0,
    "MEAN_MOTION_DOT": -4.9e-7,
    "MEAN_MOTION_DDOT": 0
  },
  {
    "OBJECT_NAME": "GSAT0203 (GALILEO 7)",
    "OBJECT_ID": "2015-017A",
    "EPOCH": "2024-09-02T08:16:39.969984",
    "MEAN_MOTION": 1.70476489,
    "ECCENTRICITY": 0.000365,
    "INCLINATION": 56.9224,
    "RA_OF_ASC_NODE": 359.3736,
    "ARG_OF_PERICENTER": 235.3176,
    "MEAN_ANOMALY": 124.6534,
    "EPHEMERIS_TYPE": 0,
    "CLASSIFICATION_TYPE": "U",
    "NORAD_CAT_ID": 40544,
    "ELEMENT_SET_NO": 999,
    "REV_AT_EPOCH": 5807,
    "BSTAR": 0,
    "MEAN_MOTION_DOT": -0.0000011,
    "MEAN_MOTION_DDOT": 0
  },
  {
    "OBJECT_NAME": "GSAT0204 (GALILEO 8)",
    "OBJECT_ID": "2015-017B",
    "EPOCH": "2024-09-02T14:23:00.008160",
    "MEAN_MOTION": 1.70475985,
    "ECCENTRICITY": 0.0003715,
    "INCLINATION": 56.9289,
    "RA_OF_ASC_NODE": 359.3823,
    "ARG_OF_PERICENTER": 217.5544,
    "MEAN_ANOMALY": 142.4257,
    "EPHEMERIS_TYPE": 0,
    "CLASSIFICATION_TYPE": "U",
    "NORAD_CAT_ID": 40545,
    "ELEMENT_SET_NO": 999,
    "REV_AT_EPOCH": 2112,
    "BSTAR": 0,
    "MEAN_MOTION_DOT": -0.00000109,
    "MEAN_MOTION_DDOT": 0
  },
  {
    "OBJECT_NAME": "GSAT0205 (GALILEO 9)",
    "OBJECT_ID": "2015-045A",
    "EPOCH": "2024-09-01T18:44:20.947200",
    "MEAN_MOTION": 1.70473441,
    "ECCENTRICITY": 0.0003194,
    "INCLINATION": 55.188,
    "RA_OF_ASC_NODE": 239.6524,
    "ARG_OF_PERICENTER": 6.8325,
    "MEAN_ANOMALY": 353.165,
    "EPHEMERIS_TYPE": 0,
    "CLASSIFICATION_TYPE": "U",
    "NORAD_CAT_ID": 40889,
    "ELEMENT_SET_NO": 999,
    "REV_AT_EPOCH": 5587,
    "BSTAR": 0,
    "MEAN_MOTION_DOT": 2.6e-7,
    "MEAN_MOTION_DDOT": 0
  },
  {
    "OBJECT_NAME": "GSAT0206 (GALILEO 10)",
    "OBJECT_ID": "2015-045B",
    "EPOCH": "2024-09-02T14:06:46.014912",
    "MEAN_MOTION": 1.70473424,
    "ECCENTRICITY": 0.0001982,
    "INCLINATION": 55.1861,
    "RA_OF_ASC_NODE": 239.6256,
    "ARG_OF_PERICENTER": 329.8876,
    "MEAN_ANOMALY": 30.0896,
    "EPHEMERIS_TYPE": 0,
    "CLASSIFICATION_TYPE": "U",
    "NORAD_CAT_ID": 40890,
    "ELEMENT_SET_NO": 999,
    "REV_AT_EPOCH": 5591,
    "BSTAR": 0,
    "MEAN_MOTION_DOT": 2.5e-7,
    "MEAN_MOTION_DDOT": 0
  },
  {
    "OBJECT_NAME": "GSAT0209 (GALILEO 12)",
    "OBJECT_ID": "2015-079A",
    "EPOCH": "2024-09-02T04:06:55.398528",
    "MEAN_MOTION": 1.70474081,
    "ECCENTRICITY": 0.0003185,
    "INCLINATION": 55.4566,
    "RA_OF_ASC_NODE": 119.1988,
    "ARG_OF_PERICENTER": 340.7362,
    "MEAN_ANOMALY": 19.3497,
    "EPHEMERIS_TYPE": 0,
    "CLASSIFICATION_TYPE": "U",
    "NORAD_CAT_ID": 41174,
    "ELEMENT_SET_NO": 999,
    "REV_AT_EPOCH": 5364,
    "BSTAR": 0,
    "MEAN_MOTION_DOT": 2e-8,
    "MEAN_MOTION_DDOT": 0
  },
  {
    "OBJECT_NAME": "GSAT0208 (GALILEO 11)",
    "OBJECT_ID": "2015-079B",
    "EPOCH": "2024-09-01T05:14:03.710400",
    "MEAN_MOTION": 1.70473872,
    "ECCENTRICITY": 0.0002752,
    "INCLINATION": 55.4546,
    "RA_OF_ASC_NODE": 119.2228,
    "ARG_OF_PERICENTER": 340.8816,
    "MEAN_ANOMALY": 19.2006,
    "EPHEMERIS_TYPE": 0,
    "CLASSIFICATION_TYPE": "U",
    "NORAD_CAT_ID": 41175,
    "ELEMENT_SET_NO": 999,
    "REV_AT_EPOCH": 5420,
    "BSTAR": 0,
    "MEAN_MOTION_DOT": -4e-8,
    "MEAN_MOTION_DDOT": 0
  },
  {
    "OBJECT_NAME": "GSAT0211 (GALILEO 14)",
    "OBJECT_ID": "2016-030A",
    "EPOCH": "2024-09-02T12:19:46.587360",
    "MEAN_MOTION": 1.70473494,
    "ECCENTRICITY": 0.0003532,
    "INCLINATION": 55.3343,
    "RA_OF_ASC_NODE": 239.647,
    "ARG_OF_PERICENTER": 314.9065,
    "MEAN_ANOMALY": 45.0539,
    "EPHEMERIS_TYPE": 0,
    "CLASSIFICATION_TYPE": "U",
    "NORAD_CAT_ID": 41549,
    "ELEMENT_SET_NO": 999,
    "REV_AT_EPOCH": 5152,
    "BSTAR": 0,
    "MEAN_MOTION_DOT": 2.5e-7,
    "MEAN_MOTION_DDOT": 0
  },
  {
    "OBJECT_NAME": "GSAT0207 (GALILEO 15)",
    "OBJECT_ID": "2016-069A",
    "EPOCH": "2024-09-01T07:00:18.315360",
    "MEAN_MOTION": 1.70473987,
    "ECCENTRICITY": 0.0003102,
    "INCLINATION": 55.1213,
    "RA_OF_ASC_NODE": 119.2059,
    "ARG_OF_PERICENTER": 320.2906,
    "MEAN_ANOMALY": 39.7794,
    "EPHEMERIS_TYPE": 0,
    "CLASSIFICATION_TYPE": "U",
    "NORAD_CAT_ID": 41859,
    "ELEMENT_SET_NO": 999,
    "REV_AT_EPOCH": 4847,
    "BSTAR": 0,
    "MEAN_MOTION_DOT": -4e-8,
    "MEAN_MOTION_DDOT": 0
  },
  {
    "OBJECT_NAME": "GSAT0212 (GALILEO 16)",
    "OBJECT_ID": "2016-069B",
    "EPOCH": "2024-09-02T07:39:45.747072",
    "MEAN_MOTION": 1.70474107,
    "ECCENTRICITY": 0.0002675,
    "INCLINATION": 55.1196,
    "RA_OF_ASC_NODE": 119.1736,
    "ARG_OF_PERICENTER": 12.4582,
    "MEAN_ANOMALY": 347.6469,
    "EPHEMERIS_TYPE": 0,
    "CLASSIFICATION_TYPE": "U",
    "NORAD_CAT_ID": 41860,
    "ELEMENT_SET_NO": 999,
    "REV_AT_EPOCH": 4852,
    "BSTAR": 0,
    "MEAN_MOTION_DOT": 2e-8,
    "MEAN_MOTION_DDOT": 0
  }
]
